ORBCOMM FM24            
1 25478U 98053D   24256.08686729  .00005082  00000+0  17672-2 0  9995
2 25478  45.0069 146.1853 0001223 300.8745  59.1983 14.36371071357435
ORBCOMM FM25            
1 25479U 98053E   24256.12421155  .00004803  00000+0  16734-2 0  9999
2 25479  45.0059 144.2596 0003750 301.5011  58.5470 14.36355297357738
ORBCOMM FM26            
1 25480U 98053F   24256.39173376  .00003448  00000+0  12314-2 0  9993
2 25480  45.0052 137.6844 0005918 320.2850  39.7563 14.35683576357706
ORBCOMM FM27            
1 25481U 98053G   24256.39162954  .00004854  00000+0  16909-2 0  9990
2 25481  45.0043 143.2543 0000780  41.7559 318.3348 14.36349749357708
ORBCOMM FM28            
1 25482U 98053H   24256.55082792  .00009155  00000+0  31202-2 0  9992
2 25482  45.0052  80.5716 0003016 346.7904  13.2864 14.36733550358578
ORBCOMM FM30            
1 25980U 99065A   24256.55064399  .00007384  00000+0  25719-2 0  9990
2 25980  45.0322 322.5881 0004065  46.1125 314.0058 14.35841923294528
ORBCOMM FM31            
1 25981U 99065B   24256.58648221  .00007556  00000+0  26321-2 0  9997
2 25981  45.0235 316.0291 0001147  87.0894 273.0085 14.35823087294086
ORBCOMM FM32            
1 25982U 99065C   24256.51551767  .00007801  00000+0  27694-2 0  9996
2 25982  45.0170 331.0499 0003412  90.5412 269.5826 14.34836471294829
